     2              NAVIGATION DATA                         RINEX VERSION / TYPE
CCRINEXN V1.6.0 UX  CDDIS               27-APR-16 15:33     PGM / RUN BY / DATE 
IGS BROADCAST EPHEMERIS FILE                                COMMENT             
    0.9313D-08  0.1490D-07 -0.5960D-07 -0.1192D-06          ION ALPHA           
    0.8806D+05  0.4915D+05 -0.1311D+06 -0.3277D+06          ION BETA            
    0.931322574615D-09 0.000000000000D+00   319488     1894 DELTA-UTC: A0,A1,T,W
    17                                                      LEAP SECONDS        
                                                            END OF HEADER       
21 16  4 26  2  0  0.0-0.520460307598D-03-0.136424205266D-11 0.000000000000D+00
    0.690000000000D+02 0.230312500000D+02 0.551701552013D-08 0.203456919140D+00
    0.145472586155D-05 0.233697195072D-01 0.762008130550D-05 0.515362195015D+04
    0.180000000000D+06-0.376254320145D-06-0.169027840395D+01 0.875443220139D-07
    0.935759810884D+00 0.225031250000D+03-0.179880813133D+01-0.885429738846D-08
    0.278583032673D-09 0.000000000000D+00 0.189400000000D+04 0.000000000000D+00
    0.200000000000D+01 0.000000000000D+00-0.102445483208D-07 0.690000000000D+02
    0.172800000000D+06 0.400000000000D+01 0.000000000000D+00 0.000000000000D+00
24 16  4 26  2  0  0.0-0.161128118634D-04-0.568434188608D-12 0.000000000000D+00
    0.490000000000D+02 0.869375000000D+02 0.471698219553D-08 0.215280938424D+01
    0.453181564808D-05 0.441300426610D-02 0.471249222755D-05 0.515362764931D+04
    0.180000000000D+06-0.100582838059D-06 0.145490691458D+01 0.204890966415D-07
    0.949597124360D+00 0.280156250000D+03 0.414107698436D+00-0.834177603988D-08
    0.283940398686D-09 0.100000000000D+01 0.189400000000D+04 0.000000000000D+00
    0.200000000000D+01 0.000000000000D+00 0.232830643654D-08 0.490000000000D+02
    0.172818000000D+06 0.400000000000D+01 0.000000000000D+00 0.000000000000D+00
25 16  4 26  2  0  0.0-0.159945338965D-03-0.704858393874D-11 0.000000000000D+00
    0.470000000000D+02-0.573750000000D+02 0.436482466961D-08 0.174549545249D+00
   -0.304356217384D-05 0.556258682627D-02 0.353902578354D-05 0.515376331711D+04
    0.180000000000D+06 0.186264514923D-08 0.252684881271D+01 0.502914190292D-07
    0.978607170231D+00 0.324625000000D+03 0.752953975853D+00-0.822355682986D-08
   -0.123219418298D-09 0.100000000000D+01 0.189400000000D+04 0.000000000000D+00
    0.200000000000D+01 0.000000000000D+00 0.558793544769D-08 0.470000000000D+02
    0.178182000000D+06 0.400000000000D+01 0.000000000000D+00 0.000000000000D+00
26 16  4 26  2  0  0.0-0.343350227922D-03-0.131876731757D-10 0.000000000000D+00
    0.730000000000D+02-0.670625000000D+02 0.473198282036D-08-0.603795828646D+00
   -0.339001417160D-05 0.101851066574D-02 0.287964940071D-05 0.515374507141D+04
    0.180000000000D+06-0.484287738800D-07 0.251842599604D+01-0.316649675369D-07
    0.960584459833D+00 0.320156250000D+03 0.135634973444D+00-0.841177895579D-08
   -0.707172313708D-10 0.000000000000D+00 0.189400000000D+04 0.000000000000D+00
    0.200000000000D+01 0.000000000000D+00 0.698491930962D-08 0.730000000000D+02
    0.172800000000D+06 0.400000000000D+01 0.000000000000D+00 0.000000000000D+00
27 16  4 26  2  0  0.0 0.860206782818D-04 0.397903932026D-11 0.000000000000D+00
    0.156000000000D+03-0.777500000000D+02 0.414981571362D-08-0.219821768701D+01
   -0.418350100517D-05 0.356997642666D-02 0.110249966383D-04 0.515364534187D+04
    0.180000000000D+06 0.204890966415D-07-0.271530296713D+01-0.102445483208D-06
    0.971246626652D+00 0.172312500000D+03 0.247244531047D+00-0.778246702813D-08
    0.126076680171D-09 0.000000000000D+00 0.189400000000D+04 0.000000000000D+00
    0.280000000000D+01 0.000000000000D+00 0.139698386192D-08 0.156000000000D+03
    0.172800000000D+06 0.400000000000D+01 0.000000000000D+00 0.000000000000D+00
28 16  4 26  2  0  0.0 0.518726650626D-03 0.261479726760D-11 0.000000000000D+00
    0.730000000000D+02-0.638437500000D+02 0.409695636896D-08-0.145035138329D+01
   -0.278837978840D-05 0.197496622568D-01 0.402703881264D-05 0.515362614059D+04
    0.180000000000D+06-0.745058059692D-08 0.260114026492D+01 0.558793544769D-06
    0.989618346879D+00 0.316468750000D+03-0.161801650335D+01-0.804497796277D-08
   -0.112861844006D-09 0.100000000000D+01 0.189400000000D+04 0.000000000000D+00
    0.200000000000D+01 0.000000000000D+00-0.111758708954D-07 0.730000000000D+02
    0.172818000000D+06 0.400000000000D+01 0.000000000000D+00 0.000000000000D+00
30 16  4 26  2  0  0.0 0.119966454804D-03 0.341060513165D-11 0.000000000000D+00
    0.260000000000D+02 0.916875000000D+02 0.468805241906D-08 0.137904477112D+01
    0.475533306599D-05 0.195540918503D-02 0.447221100330D-05 0.515361618042D+04
    0.180000000000D+06-0.204890966415D-07 0.154617862516D+01 0.316649675369D-07
    0.952261569242D+00 0.288312500000D+03 0.297734328778D+01-0.834141888215D-08
    0.290369237901D-09 0.100000000000D+01 0.189400000000D+04 0.000000000000D+00
    0.200000000000D+01 0.000000000000D+00 0.325962901115D-08 0.260000000000D+02
    0.172818000000D+06 0.400000000000D+01 0.000000000000D+00 0.000000000000D+00
31 16  4 26  2  0  0.0 0.271973200142D-03-0.181898940355D-11 0.000000000000D+00
    0.107000000000D+03 0.900625000000D+02 0.422160441820D-08 0.112360336232D+01
    0.475533306599D-05 0.820863666013D-02 0.445544719696D-05 0.515373610687D+04
    0.180000000000D+06 0.223517417908D-06 0.151078376843D+01 0.124797224999D-06
    0.971306000645D+00 0.297437500000D+03-0.400508226181D+00-0.808212236712D-08
    0.311084386485D-09 0.000000000000D+00 0.189400000000D+04 0.000000000000D+00
    0.200000000000D+01 0.000000000000D+00-0.135041773319D-07 0.107000000000D+03
    0.172800000000D+06 0.400000000000D+01 0.000000000000D+00 0.000000000000D+00
32 16  4 26  2  0  0.0 0.195112079382D-05-0.420641299570D-11 0.000000000000D+00
    0.400000000000D+01 0.483125000000D+02 0.417088801994D-08-0.191546385222D+01
    0.250525772572D-05 0.240391236730D-03 0.105854123831D-04 0.515359396172D+04
    0.180000000000D+06 0.149011611938D-07 0.424655805922D+00-0.126659870148D-06
    0.960269060546D+00 0.178843750000D+03-0.233532502899D+01-0.772389315973D-08
   -0.301798285396D-09 0.000000000000D+00 0.189400000000D+04 0.000000000000D+00
    0.200000000000D+01 0.000000000000D+00 0.465661287308D-09 0.400000000000D+01
    0.172800000000D+06 0.400000000000D+01 0.000000000000D+00 0.000000000000D+00
 2 16  4 26  3 59 44.0 0.595182646066D-03-0.193267624127D-11 0.000000000000D+00
    0.130000000000D+02 0.965625000000D+01 0.514307137242D-08-0.289947580255D+01
    0.545755028725D-06 0.156524066115D-01 0.757351517677D-05 0.515376209831D+04
    0.187184000000D+06 0.258907675743D-06-0.170253520268D+01-0.299885869026D-06
    0.942571038964D+00 0.219250000000D+03-0.212723386625D+01-0.805747848346D-08
    0.420731810883D-09 0.100000000000D+01 0.189400000000D+04 0.000000000000D+00
    0.200000000000D+01 0.000000000000D+00-0.200234353542D-07 0.130000000000D+02
    0.180018000000D+06 0.400000000000D+01 0.000000000000D+00 0.000000000000D+00
 7 16  4 26  3 59 44.0 0.458068214357D-03-0.216004991671D-11 0.000000000000D+00
    0.500000000000D+01 0.105468750000D+03 0.438232539859D-08 0.227479163667D+01
    0.539608299732D-05 0.929066049866D-02 0.503472983837D-05 0.515365836525D+04
    0.187184000000D+06-0.175088644028D-06 0.150150917794D+01-0.651925802231D-07
    0.966485846495D+00 0.284812500000D+03-0.268125653465D+01-0.815248244076D-08
    0.281440294547D-09 0.000000000000D+00 0.189400000000D+04 0.000000000000D+00
    0.200000000000D+01 0.000000000000D+00-0.111758708954D-07 0.500000000000D+01
    0.184290000000D+06 0.400000000000D+01 0.000000000000D+00 0.000000000000D+00
 9 16  4 26  3 59 44.0 0.117185525596D-03 0.738964445190D-11 0.000000000000D+00
    0.200000000000D+01 0.493125000000D+02 0.433625205087D-08-0.139528503579D+01
    0.247731804848D-05 0.608891714364D-03 0.108908861876D-04 0.515360108948D+04
    0.187184000000D+06 0.167638063431D-07 0.423359638560D+00 0.931322574616D-08
    0.955662100374D+00 0.165781250000D+03 0.213613825508D+01-0.786925635754D-08
   -0.355014787791D-09 0.100000000000D+01 0.189400000000D+04 0.000000000000D+00
    0.200000000000D+01 0.000000000000D+00 0.139698386192D-08 0.200000000000D+01
    0.185070000000D+06 0.400000000000D+01 0.000000000000D+00 0.000000000000D+00
19 16  4 26  3 59 44.0-0.525680836290D-03 0.000000000000D+00 0.000000000000D+00
    0.220000000000D+02-0.850625000000D+02 0.404802575938D-08 0.195359402344D+01
   -0.436231493950D-05 0.107675228501D-01 0.108163803816D-04 0.515362353706D+04
    0.187184000000D+06-0.271946191788D-06-0.261682995306D+01-0.782310962677D-07
    0.973350393551D+00 0.181531250000D+03 0.749000204213D+00-0.772817905254D-08
    0.191436545529D-09 0.100000000000D+01 0.189400000000D+04 0.000000000000D+00
    0.200000000000D+01 0.000000000000D+00-0.149011611938D-07 0.220000000000D+02
    0.180018000000D+06 0.400000000000D+01 0.000000000000D+00 0.000000000000D+00
20 16  4 26  3 59 44.0 0.408350955695D-03 0.238742359215D-11 0.000000000000D+00
    0.160000000000D+02-0.141562500000D+02 0.560773338876D-08-0.196161592595D+01
   -0.698491930962D-06 0.464566319715D-02 0.559352338314D-05 0.515372012138D+04
    0.187184000000D+06 0.670552253723D-07-0.699736110200D+00 0.502914190292D-07
    0.926238821108D+00 0.253343750000D+03 0.136055376747D+01-0.849928216695D-08
   -0.297869562349D-09 0.100000000000D+01 0.189400000000D+04 0.000000000000D+00
    0.200000000000D+01 0.000000000000D+00-0.838190317154D-08 0.160000000000D+02
    0.180000000000D+06 0.000000000000D+00 0.000000000000D+00 0.000000000000D+00
